CCSDS_OEM_VERS = 1.0
CREATION_DATE  = 2017-05-11T10:57:41
ORIGINATOR     = GMAT USER

META_START
OBJECT_NAME          = MOPSSat_alt_35785_km_RAAN_0_031
OBJECT_ID            = SatId
CENTER_NAME          = Earth
REF_FRAME            = EME2000
TIME_SYSTEM          = UTC
START_TIME           = 2017-01-01T00:00:00.000
USEABLE_START_TIME   = 2017-01-01T00:00:00.000
USEABLE_STOP_TIME    = 2017-01-02T00:00:00.000
STOP_TIME            = 2017-01-02T00:00:00.000
INTERPOLATION        = Lagrange
INTERPOLATION_DEGREE = 7 
META_STOP


                                                                                   

2017-01-01T19:24:10.000   1.569462451052576e+04  -3.913440734911470e+04  -2.681385347922475e-02   2.853720286581712e+00   1.144570913425594e+00  -1.206791919497803e-04
2017-01-01T19:24:20.000   1.572315753875223e+04  -3.912295123582020e+04  -2.802084726849068e-02   2.852885006572900e+00   1.146651604110650e+00  -1.207195528778071e-04
2017-01-01T19:24:30.000   1.575168220652848e+04  -3.911147431869173e+04  -2.922824439943760e-02   2.852048209443288e+00   1.148731685142856e+00  -1.207598608200143e-04
2017-01-01T19:24:40.000   1.578019849857440e+04  -3.909997660387582e+04  -3.043604433728956e-02   2.851209895640883e+00   1.150811155407868e+00  -1.208001157320039e-04
2017-01-01T19:24:50.000   1.580870639964782e+04  -3.908845809751792e+04  -3.164424654820471e-02   2.850370065613606e+00   1.152890013794106e+00  -1.208403175694430e-04
2017-01-01T19:25:00.000   1.583720589457746e+04  -3.907691880574735e+04  -3.285285050072613e-02   2.849528719808207e+00   1.154968259195162e+00  -1.208804662881043e-04
2017-01-01T19:25:10.000   1.586569696817667e+04  -3.906535873471289e+04  -3.406185566209870e-02   2.848685858672859e+00   1.157045890503506e+00  -1.209205618437471e-04
2017-01-01T19:25:20.000   1.589417960561797e+04  -3.905377789042856e+04  -3.527126151423896e-02   2.847841482645901e+00   1.159122906637798e+00  -1.209606041926315e-04
2017-01-01T19:25:30.000   1.592265379197896e+04  -3.904217627896011e+04  -3.648106753439197e-02   2.846995592169449e+00   1.161199306509778e+00  -1.210005932908938e-04
2017-01-01T19:25:40.000   1.595111951241404e+04  -3.903055390635467e+04  -3.769127320243777e-02   2.846148187684265e+00   1.163275089036787e+00  -1.210405290947824e-04
2017-01-01T19:25:50.000   1.597957675148886e+04  -3.901891077891253e+04  -3.890187797259935e-02   2.845299269649563e+00   1.165350253093227e+00  -1.210804115597407e-04
2017-01-01T19:26:00.000   1.600802549384592e+04  -3.900724690291547e+04  -4.011288130173171e-02   2.844448838523212e+00   1.167424797559111e+00  -1.211202406413239e-04
2017-01-01T19:26:10.000   1.603646572403273e+04  -3.899556228469680e+04  -4.132428264202424e-02   2.843596894766836e+00   1.169498721307521e+00  -1.211600162949645e-04
2017-01-01T19:26:20.000   1.606489742695690e+04  -3.898385693045699e+04  -4.253608146029859e-02   2.842743438832377e+00   1.171572023237799e+00  -1.211997384765946e-04
2017-01-01T19:26:30.000   1.609332058751044e+04  -3.897213084641549e+04  -4.374827722209153e-02   2.841888471173159e+00   1.173644702248148e+00  -1.212394071421348e-04
2017-01-01T19:26:40.000   1.612173519065641e+04  -3.896038403877562e+04  -4.496086939532324e-02   2.841031992241331e+00   1.175716757241954e+00  -1.212790222476090e-04
2017-01-01T19:26:50.000   1.615014122139486e+04  -3.894861651373706e+04  -4.617385744889916e-02   2.840174002488778e+00   1.177788187125298e+00  -1.213185837491132e-04
2017-01-01T19:27:00.000   1.617853866474743e+04  -3.893682827750352e+04  -4.738724085200825e-02   2.839314502367673e+00   1.179858990805836e+00  -1.213580916027779e-04
2017-01-01T19:27:10.000   1.620692750572335e+04  -3.892501933629683e+04  -4.860101907267184e-02   2.838453492331522e+00   1.181929167190320e+00  -1.213975457647268e-04
2017-01-01T19:27:20.000   1.623530772930310e+04  -3.891318969636242e+04  -4.981519157708716e-02   2.837590972835538e+00   1.183998715183402e+00  -1.214369461910345e-04
2017-01-01T19:27:30.000   1.626367932040553e+04  -3.890133936398455e+04  -5.102975782817030e-02   2.836726944337781e+00   1.186067633685243e+00  -1.214762928377014e-04
2017-01-01T19:27:40.000   1.629204226397390e+04  -3.888946834544989e+04  -5.224471728925745e-02   2.835861407296472e+00   1.188135921597784e+00  -1.215155856607650e-04
2017-01-01T19:27:50.000   1.632039654460297e+04  -3.887757664720577e+04  -5.346006940805775e-02   2.834994362181562e+00   1.190203577797548e+00  -1.215548246158059e-04
2017-01-01T19:28:00.000   1.634874214699103e+04  -3.886566427566887e+04  -5.467581363609079e-02   2.834125809460748e+00   1.192270601168611e+00  -1.215940096585516e-04
2017-01-01T19:28:10.000   1.637707905577176e+04  -3.885373123729589e+04  -5.589194942146324e-02   2.833255749604668e+00   1.194336990590338e+00  -1.216331407446517e-04
2017-01-01T19:28:20.000   1.640540725616612e+04  -3.884177753830964e+04  -5.710847623683834e-02   2.832384183066889e+00   1.196402744984914e+00  -1.216722178305601e-04
2017-01-01T19:28:30.000   1.643372673333201e+04  -3.882980318497221e+04  -5.832539355154089e-02   2.831511110303850e+00   1.198467863269934e+00  -1.217112408726544e-04
2017-01-01T19:28:40.000   1.646203747251181e+04  -3.881780818352338e+04  -5.954270083787060e-02   2.830636531770363e+00   1.200532344369145e+00  -1.217502098274343e-04
2017-01-01T19:28:50.000   1.649033945866453e+04  -3.880579254033323e+04  -6.076039755539084e-02   2.829760447930738e+00   1.202596187185635e+00  -1.217891246510268e-04
2017-01-01T19:29:00.000   1.651863267673927e+04  -3.879375626178966e+04  -6.197848316257811e-02   2.828882859250591e+00   1.204659390621767e+00  -1.218279852995510e-04
2017-01-01T19:29:10.000   1.654691711167472e+04  -3.878169935429727e+04  -6.319695711684373e-02   2.828003766196750e+00   1.206721953579143e+00  -1.218667917291216e-04
2017-01-01T19:29:20.000   1.657519274812840e+04  -3.876962182439600e+04  -6.441581886276655e-02   2.827123169245913e+00   1.208783874938866e+00  -1.219055438954669e-04
2017-01-01T19:29:30.000   1.660345957084186e+04  -3.875752367860238e+04  -6.563506784792261e-02   2.826241068873074e+00   1.210845153588161e+00  -1.219442417544402e-04
2017-01-01T19:29:40.000   1.663171756449667e+04  -3.874540492347177e+04  -6.685470351665602e-02   2.825357465556054e+00   1.212905788409884e+00  -1.219828852618183e-04
2017-01-01T19:29:50.000   1.665996671435219e+04  -3.873326556532494e+04  -6.807472533759934e-02   2.824472359755573e+00   1.214965778329019e+00  -1.220214743741856e-04
2017-01-01T19:30:00.000   1.668820700560772e+04  -3.872110561052120e+04  -6.929513277615726e-02   2.823585751935162e+00   1.217025122266176e+00  -1.220600090480509e-04
2017-01-01T19:30:10.000   1.671643842354690e+04  -3.870892506539713e+04  -7.051592530072072e-02   2.822697642556693e+00   1.219083819148110e+00  -1.220984892400483e-04
2017-01-01T19:30:20.000   1.674466095317083e+04  -3.869672393642139e+04  -7.173710236690962e-02   2.821808032091669e+00   1.221141867880976e+00  -1.221369149064249e-04
2017-01-01T19:30:30.000   1.677287457947086e+04  -3.868450223008051e+04  -7.295866342925672e-02   2.820916921012897e+00   1.223199267370213e+00  -1.221752860034251e-04
2017-01-01T19:30:40.000   1.680107928742801e+04  -3.867225995287781e+04  -7.418060794122881e-02   2.820024309794410e+00   1.225256016520512e+00  -1.222136024872854e-04
2017-01-01T19:30:50.000   1.682927506174304e+04  -3.865999711145381e+04  -7.540293534342696e-02   2.819130198920240e+00   1.227312114216123e+00  -1.222518643138769e-04
2017-01-01T19:31:00.000   1.685746188720055e+04  -3.864771371242503e+04  -7.662564507946028e-02   2.818234588872676e+00   1.229367559347413e+00  -1.222900714391914e-04
2017-01-01T19:31:10.000   1.688563974852278e+04  -3.863540976244846e+04  -7.784873658958040e-02   2.817337480136953e+00   1.231422350800195e+00  -1.223282238191447e-04
2017-01-01T19:31:20.000   1.691380863101598e+04  -3.862308526793913e+04  -7.907220933874401e-02   2.816438873180668e+00   1.233476487502877e+00  -1.223663214104543e-04
2017-01-01T19:31:30.000   1.694196851992233e+04  -3.861074023535307e+04  -8.029606278848282e-02   2.815538768474404e+00   1.235529968379190e+00  -1.224043641697579e-04
2017-01-01T19:31:40.000   1.697011940058729e+04  -3.859837467111436e+04  -8.152029640416160e-02   2.814637166486421e+00   1.237582792360393e+00  -1.224423520538427e-04
2017-01-01T19:31:50.000   1.699826125800908e+04  -3.858598858181034e+04  -8.274490963547328e-02   2.813734067696875e+00   1.239634958352433e+00  -1.224802850190230e-04
2017-01-01T19:32:00.000   1.702639407721068e+04  -3.857358197403096e+04  -8.396990193252804e-02   2.812829472586120e+00   1.241686465263053e+00  -1.225181630216579e-04
2017-01-01T19:32:10.000   1.705451784315675e+04  -3.856115485440448e+04  -8.519527274226434e-02   2.811923381637298e+00   1.243737311995746e+00  -1.225559860180332e-04
2017-01-01T19:32:20.000   1.708263254077678e+04  -3.854870722958911e+04  -8.642102150939955e-02   2.811015795335739e+00   1.245787497451442e+00  -1.225937539644118e-04
2017-01-01T19:32:30.000   1.711073815499258e+04  -3.853623910625940e+04  -8.764714767767383e-02   2.810106714167965e+00   1.247837020530510e+00  -1.226314668170521e-04
2017-01-01T19:32:40.000   1.713883467072851e+04  -3.852375049110192e+04  -8.887365069028939e-02   2.809196138621367e+00   1.249885880133502e+00  -1.226691245322273e-04
2017-01-01T19:32:50.000   1.716692207301224e+04  -3.851124139077114e+04  -9.010052999428433e-02   2.808284069181011e+00   1.251934075168506e+00  -1.227067270663451e-04
2017-01-01T19:33:00.000   1.719500034690740e+04  -3.849871181191858e+04  -9.132778503762430e-02   2.807370506331733e+00   1.253981604546232e+00  -1.227442743758727e-04
2017-01-01T19:33:10.000   1.722306947751368e+04  -3.848616176119280e+04  -9.255541526919928e-02   2.806455450558162e+00   1.256028467180018e+00  -1.227817664173313e-04
